TDRS 3                  
1 19548U 88091B   26088.10544487 -.00000312  00000+0  00000+0 0  9995
2 19548  12.6626 341.5316 0042579 354.9457 199.0723  1.00269319124581
HST                     
1 20580U 90037B   26088.18957586  .00010418  00000+0  34286-3 0  9996
2 20580  28.4724 266.9491 0001756 354.8838   5.1740 15.29783443776305
TDRS 5                  
1 21639U 91054B   26087.25558338  .00000072  00000+0  00000+0 0  9999
2 21639  14.0818 354.3784 0009589 279.2122 196.4212  1.00275572126907
TDRS 6                  
1 22314U 93003B   26087.88851140 -.00000308  00000+0  00000+0 0  9995
2 22314  14.1817 357.6547 0005043 185.4414 277.2290  1.00269870121604
TDRS 7                  
1 23613U 95035B   26087.72197429 -.00000251  00000+0  00000+0 0  9998
2 23613  13.4109 348.7422 0009219  54.0130 132.3570  1.00270113112447
ISS (ZARYA)             
1 25544U 98067A   26088.13267411  .00012260  00000+0  23326-3 0  9998
2 25544  51.6344 336.2407 0006215 245.2164 114.8178 15.48624340559341
TERRA                   
1 25994U 99068A   26088.16684528  .00000472  00000+0  10519-3 0  9996
2 25994  97.9552 140.8535 0003577 110.9538 318.4372 14.61034969397924
TDRS 8                  
1 26388U 00034A   26087.84674470 -.00000207  00000+0  00000+0 0  9995
2 26388  12.5584  31.9922 0005958 326.0757 217.9209  1.00271852 94376
TIMED                   
1 26998U 01055B   26088.18535032  .00001995  00000+0  18560-3 0  9992
2 26998  74.0690  36.0776 0002768 250.6198 109.4688 14.95087854318868
AQUA                    
1 27424U 02022A   26088.19531542  .00001234  00000+0  25591-3 0  9993
2 27424  98.4206  55.9204 0001155 117.6858 331.7498 14.62021580271580
SORCE                   
1 27651U 03004A   26088.16537570  .00004635  00000+0  34597-3 0  9994
2 27651  39.9926 358.0762 0017602 202.2129 157.7904 15.03244973259856
AURA                    
1 28376U 04026A   26088.14498186  .00001240  00000+0  26151-3 0  9997
2 28376  98.3341  43.9784 0001315  94.6351 265.4999 14.61193359154522
SWIFT                   
1 28485U 04047A   26088.04681431  .00051925  00000+0  57796-3 0  9991
2 28485  20.5537  79.6941 0003093 272.0409  87.9682 15.61060012174291
THEMIS A                
1 30580U 07004A   26087.92037545  .00000033  00000+0 -33704-3 0  9991
2 30580   7.1639 117.2338 8393558 183.0367 161.9354  0.87845725 40579
THEMIS D                
1 30797U 07004D   26087.82687220 -.00000045  00000+0  00000+0 0  9993
2 30797   6.9062  83.7001 8348023 219.3021 118.6591  0.87835026 40370
THEMIS E                
1 30798U 07004E   26081.10711733 -.00000102  00000+0  00000+0 0  9990
2 30798   4.4028  99.1325 8354244 204.1504 168.4350  0.87837115 65156
FGRST (GLAST)           
1 33053U 08029A   26088.20250623  .00005299  00000+0  20199-3 0  9995
2 33053  25.5833  39.6660 0008604 101.8514 258.2990 15.23478131983628
